{"type":"FeatureCollection","features":[
{"type":"Feature","properties":{"name":"LFBO RADAR BACKGROUND","fillStyle":{"color":[33,33,33],"opacity":1.0},"lineStyle":{"color":[33,33,33],"width":1.0,"opacity":1.0,"dashArray":null}},"geometry":{"type":"MultiPolygon","coordinates":[[[[-29.631331,59.975127],[-29.631331,30.90939],[34.002217,30.90939],[34.002217,60.013146],[-29.631331,59.975127]]]]}},
{"type":"Feature","properties":{"name":"LFBO RADAR AOR1","fillStyle":{"color":[27,51,43],"opacity":1.0},"lineStyle":{"color":[27,51,43],"width":0.26,"opacity":1.0,"dashArray":null}},"geometry":{"type":"MultiPolygon","coordinates":[[[[0.279722,44.2125],[0.369337,44.298528],[0.579722,44.5],[1.036944,44.5],[1.716667,44.5],[2.605556,44.058333],[2.822287,44.025907],[2.750294,43.827561],[2.709444,43.714722],[2.706944,43.2125],[2.660004,43.228473],[2.66,43.213889],[2.625,43.131111],[2.42694,43.132196],[2.311667,43.031944],[2.275,43.0],[2.050278,43.0],[2.1,42.383333],[2.102063,42.365675],[2.07,42.363611],[2.047222,42.359444],[2.033056,42.358611],[2.016667,42.359722],[2.006389,42.362222],[1.999722,42.367222],[1.972222,42.378056],[1.965556,42.382778],[1.96,42.3925],[1.961111,42.404444],[1.952778,42.424722],[1.947222,42.432222],[1.947222,42.433056],[1.945556,42.438611],[1.942233,42.444494],[1.935556,42.448056],[1.923889,42.455],[1.912222,42.455833],[1.9025,42.451667],[1.893889,42.452222],[1.857871,42.469048],[1.807212,43.0],[1.076637,43.0],[1.096667,42.7775],[1.086111,42.783889],[1.048611,42.785278],[1.038611,42.788056],[1.010556,42.786389],[0.994722,42.787222],[0.975278,42.792778],[0.970278,42.803333],[0.962222,42.806111],[0.956944,42.805556],[0.943214,42.796643],[0.935556,42.793611],[0.908889,42.801111],[0.884444,42.813889],[0.859108,42.823836],[0.840095,43.0],[0.75,43.0],[0.75,43.089769],[0.75,43.234261],[0.75,43.31892],[0.75,43.423281],[0.75,43.673889],[0.872778,43.766667],[0.279722,44.2125]]]]}},
{"type":"Feature","properties":{"name":"LFBO RADAR AOR2","fillStyle":{"color":[29,53,37],"opacity":1.0},"lineStyle":{"color":[29,53,37],"width":0.26,"opacity":1.0,"dashArray":null}},"geometry":{"type":"MultiPolygon","coordinates":[[[[0.279722,44.2125],[0.369337,44.298528],[0.579722,44.5],[1.025556,44.346111],[1.270259,44.328919],[1.715497,44.297558],[1.748889,44.295211],[1.804444,44.293333],[1.858333,44.166667],[2.605556,44.058333],[2.477427,43.959987],[2.269444,43.8],[2.544819,43.307558],[2.572222,43.258333],[2.42694,43.132196],[2.311667,43.031944],[2.275,43.0],[2.050278,43.0],[1.807212,43.0],[1.166667,43.0],[1.076637,43.0],[0.840095,43.0],[0.75,43.0],[0.75,43.089769],[0.75,43.234261],[0.75,43.31892],[0.75,43.40004],[0.75,43.423281],[0.75,43.673889],[0.872778,43.766667],[0.279722,44.2125]]]]}},
{"type":"Feature","properties":{"name":"LFBO RADAR AOR3","fillStyle":{"color":[30,56,46],"opacity":1.0},"lineStyle":{"color":[30,56,46],"width":0.0,"opacity":1.0,"dashArray":null}},"geometry":{"type":"MultiPolygon","coordinates":[[[[1.966667,43.358333],[1.944444,43.366667],[1.848056,43.366667],[1.848263,43.223428],[1.967276,43.197459],[1.966667,43.358333]]],[[[0.872778,43.766667],[1.002222,44.038611],[1.350833,44.125556],[1.538889,44.091667],[1.621667,44.083889],[1.725278,43.9],[1.725265,43.574415],[1.647222,43.602778],[1.567389,43.737085],[1.473052,43.895521],[1.418889,43.986111],[1.090833,43.931389],[0.872778,43.766667]]]]}},
{"type":"Feature","properties":{"name":"LFBO RADAR AOR4","fillStyle":{"color":[38,58,47],"opacity":1.0},"lineStyle":{"color":[38,58,47],"width":0.26,"opacity":1.0,"dashArray":null}},"geometry":{"type":"MultiPolygon","coordinates":[[[[0.949444,43.578056],[1.341667,43.449444],[1.330278,43.339444],[1.666667,43.341667],[1.744167,43.455833],[1.526269,43.540998],[1.493889,43.558056],[1.456667,43.601389],[1.477778,43.635],[1.540278,43.703611],[1.567389,43.737085],[1.647222,43.602778],[1.725265,43.574415],[1.919167,43.503889],[1.617911,43.268531],[1.32574,43.285488],[1.0275,43.384167],[0.949444,43.578056]]],[[[1.966667,43.358333],[1.967276,43.197459],[2.029444,43.183889],[2.188889,43.148611],[2.425103,43.1306],[2.42694,43.132196],[2.572222,43.258333],[2.544819,43.307558],[2.465833,43.3125],[2.095833,43.3125],[1.966667,43.358333]]]]}},
{"type":"Feature","properties":{"name":"LFBO RADAR AOR6","fillStyle":{"color":[46,61,53],"opacity":1.0},"lineStyle":{"color":[46,61,53],"width":0.26,"opacity":1.0,"dashArray":null}},"geometry":{"type":"MultiPolygon","coordinates":[[[[0.872778,43.766667],[1.090833,43.931389],[1.418889,43.986111],[1.567389,43.737085],[1.540278,43.703611],[1.477778,43.635],[1.456667,43.601389],[1.493889,43.558056],[1.515278,43.545278],[1.744167,43.455833],[1.666667,43.341667],[1.330278,43.339444],[1.341667,43.449444],[0.949444,43.578056],[0.872778,43.766667]]]]}},
{"type":"Feature","properties":{"name":"LFBO RADAR AOR6","fillStyle":{"color":[36,64,45],"opacity":1.0},"lineStyle":{"color":[36,64,45],"width":0.26,"opacity":1.0,"dashArray":null}},"geometry":{"type":"MultiPolygon","coordinates":[[[[2.544819,43.307558],[2.572222,43.258333],[2.42694,43.132196],[2.625,43.131111],[2.66,43.213889],[2.660004,43.228473],[2.66,43.3],[2.544819,43.307558]]]]}},
{"type":"Feature","properties":{"name":"LFBO RADAR AOR CTR","fillStyle":{"color":[49,66,57],"opacity":1.0},"lineStyle":{"color":[49,66,57],"width":0.26,"opacity":1.0,"dashArray":null}},"geometry":{"type":"MultiPolygon","coordinates":[[[[1.067778,43.7825],[1.301667,43.836111],[1.35,43.783333],[1.540278,43.703611],[1.477778,43.635],[1.456667,43.601389],[1.493889,43.558056],[1.515278,43.545278],[1.632222,43.499722],[1.407778,43.428056],[1.341667,43.449444],[1.172222,43.504444],[1.067778,43.7825]]],[[[0.474722,44.278889],[0.759167,44.23],[0.767241,44.21576],[0.774047,44.195419],[0.776334,44.174572],[0.774047,44.153732],[0.767241,44.133412],[0.756085,44.114112],[0.740854,44.096305],[0.721921,44.08043],[0.699754,44.066874],[0.674897,44.05597],[0.651944,44.048889],[0.518056,44.094167],[0.411111,44.141944],[0.407064,44.153732],[0.404777,44.174572],[0.407064,44.195419],[0.41387,44.21576],[0.425026,44.235094],[0.440258,44.252942],[0.45919,44.268864],[0.474722,44.278889]]]]}},
{"type":"Feature","properties":{"name":"TOULOUSE AOR CTR","fillStyle":{"color":[49,66,57],"opacity":1.0},"lineStyle":{"color":[49,66,57],"width":0.26,"opacity":1.0,"dashArray":null}},"geometry":{"type":"MultiPolygon","coordinates":[[[[2.299722,43.140278],[2.330556,43.166667],[2.466613,43.166667],[2.482255,43.180253],[2.514167,43.208056],[2.514296,43.215649],[2.511764,43.239103],[2.504229,43.261988],[2.491878,43.28374],[2.475014,43.303821],[2.465833,43.3125],[2.465833,43.3125],[2.465833,43.3125],[2.095833,43.3125],[2.084618,43.29879],[2.069522,43.272199],[2.060313,43.244225],[2.057218,43.215558],[2.060313,43.186905],[2.063889,43.176389],[2.188889,43.148611],[2.299722,43.140278]]]]}},
{"type":"Feature","properties":{"name":"LFBO FRONTIER","lineStyle":{"color":[69,117,94],"width":2.0,"opacity":1.0,"dashArray":null}},"geometry":{"type":"MultiLineString","coordinates":[[[-0.301772,42.842071],[-0.265976,42.830139],[-0.245637,42.817608],[-0.22123,42.802687],[-0.196823,42.791942],[-0.174044,42.78836],[-0.158586,42.791345],[-0.149637,42.782389],[-0.145569,42.771641],[-0.115467,42.751332],[-0.10001,42.738188],[-0.100823,42.729224],[-0.093501,42.719064],[-0.071535,42.716076],[-0.064213,42.702326],[-0.056078,42.691563],[-0.02679,42.684387],[-0.000756,42.683191],[0.01877,42.70113],[0.023651,42.70113],[0.05782,42.697543],[0.072465,42.705913],[0.095244,42.715478],[0.134295,42.711293],[0.160329,42.718466],[0.188803,42.735798],[0.219719,42.729224],[0.240057,42.717869],[0.262024,42.710696],[0.269346,42.695749],[0.280735,42.683789],[0.310837,42.678406],[0.318159,42.682593],[0.331176,42.700532],[0.340125,42.708902],[0.362905,42.72026],[0.381617,42.712489],[0.400328,42.702924],[0.423922,42.689769],[0.458091,42.689769],[0.486566,42.696945],[0.518294,42.690367],[0.533752,42.696945],[0.55165,42.699934],[0.602091,42.695749],[0.620803,42.693955],[0.634633,42.698739],[0.674497,42.696945],[0.683447,42.704717],[0.676938,42.72265],[0.672057,42.7352],[0.665548,42.745955],[0.646836,42.758501],[0.664735,42.772238],[0.653345,42.780598],[0.65904,42.795524],[0.668803,42.812834],[0.659853,42.830139],[0.661481,42.845053],[0.685887,42.849229],[0.702972,42.857578],[0.719243,42.854],[0.751785,42.839685],[0.778633,42.836105],[0.796531,42.836702],[0.825006,42.834912],[0.825819,42.834912],[0.835582,42.825962],[0.859108,42.823836],[0.884444,42.813889],[0.908889,42.801111],[0.935556,42.793611],[0.943214,42.796643],[0.956944,42.805556],[0.962222,42.806111],[0.970278,42.803333],[0.975278,42.792778],[0.994722,42.787222],[1.010556,42.786389],[1.038611,42.788056],[1.048611,42.785278],[1.086111,42.783889],[1.096667,42.7775],[1.126022,42.757903],[1.139039,42.738786],[1.151242,42.715478],[1.219581,42.716076],[1.234225,42.720857],[1.273276,42.72265],[1.334293,42.714282],[1.357073,42.708902],[1.37253,42.697543],[1.398564,42.676014],[1.413208,42.657469],[1.419717,42.641313],[1.43192,42.620363],[1.441683,42.600604],[1.434361,42.58024],[1.440056,42.568857],[1.447378,42.556873],[1.426225,42.547883],[1.435174,42.537693],[1.458767,42.532897],[1.466089,42.518508],[1.449005,42.498117],[1.42053,42.489118],[1.431106,42.480119],[1.449005,42.467517],[1.442496,42.450712],[1.474225,42.431499],[1.542564,42.430899],[1.548259,42.4321],[1.558835,42.451312],[1.584055,42.449511],[1.595445,42.463316],[1.627174,42.461516],[1.652394,42.467517],[1.671106,42.471718],[1.679242,42.492718],[1.703648,42.494517],[1.738631,42.498716],[1.763038,42.493318],[1.797208,42.490318],[1.812665,42.483719],[1.826496,42.479519],[1.84114,42.468718],[1.844394,42.465717],[1.857871,42.469048],[1.893889,42.452222],[1.9025,42.451667],[1.912222,42.455833],[1.923889,42.455],[1.935556,42.448056],[1.942233,42.444494],[1.945556,42.438611],[1.947222,42.433056],[1.947222,42.432222],[1.952778,42.424722],[1.961111,42.404444],[1.96,42.3925],[1.965556,42.382778],[1.972222,42.378056],[1.999722,42.367222],[2.006389,42.362222],[2.016667,42.359722],[2.033056,42.358611],[2.047222,42.359444],[2.07,42.363611],[2.102063,42.365675],[2.116122,42.385847],[2.132393,42.409278],[2.157614,42.42069],[2.203987,42.418888],[2.250359,42.431499],[2.274766,42.436303],[2.333342,42.418888],[2.391918,42.406274],[2.435037,42.390654],[2.452935,42.37563],[2.466766,42.361806],[2.496054,42.341363],[2.51802,42.33535],[2.551376,42.338357],[2.584732,42.352788],[2.632732,42.346775],[2.670155,42.346775],[2.672596,42.358199],[2.656325,42.382241],[2.682359,42.398465],[2.695376,42.41108],[2.739308,42.422492],[2.755579,42.421891],[2.785681,42.414083],[2.816596,42.430298],[2.841003,42.453113],[2.871918,42.459715],[2.897138,42.466917],[2.920731,42.460315],[2.955714,42.472318],[2.996392,42.469318],[3.027307,42.470518],[3.050901,42.458515],[3.066358,42.441106],[3.087511,42.430298],[3.120053,42.435702],[3.147714,42.435102],[3.160731,42.435102],[3.171307,42.434502]],[[1.441683,42.600604],[1.475039,42.605395],[1.481547,42.611982],[1.474225,42.628744],[1.481547,42.653281],[1.51653,42.645502],[1.531174,42.647297],[1.581615,42.651486],[1.58975,42.640116],[1.616598,42.625152],[1.663784,42.624554],[1.692259,42.617969],[1.737004,42.617969],[1.746767,42.605994],[1.731309,42.59222],[1.764665,42.583834],[1.792326,42.577245],[1.772801,42.564064],[1.743513,42.553277],[1.732936,42.527502],[1.732936,42.51431],[1.732123,42.509512],[1.738631,42.498716]]]}},
{"type":"Feature","properties":{"name":"LFBO RADAR OUTLINE3","lineStyle":{"color":[69,123,96],"width":0.26,"opacity":1.0,"dashArray":[0.5,1.0]}},"geometry":{"type":"MultiLineString","coordinates":[[[2.095833,43.3125],[2.084618,43.29879],[2.069522,43.272199],[2.060313,43.244225],[2.057218,43.215558],[2.060313,43.186905],[2.063889,43.176389]],[[2.660004,43.228473],[2.572222,43.258333],[2.514167,43.208056],[2.466613,43.166667],[2.42694,43.132196]],[[2.275,43.0],[2.065123,42.816522],[2.102063,42.365675]],[[1.036944,44.5],[1.025556,44.346111],[1.270259,44.328919],[1.715497,44.297558],[1.748889,44.295211],[1.804444,44.293333],[1.858333,44.166667],[2.605556,44.058333]],[[2.555787,44.08315],[2.347122,43.70873],[2.371529,43.698144],[2.283054,43.561233],[1.970873,43.431309],[2.007012,43.406241],[2.114707,43.354838],[2.148462,43.348409],[2.518205,43.355325],[2.707815,43.387846]],[[0.474722,44.278889],[0.759167,44.23],[0.767241,44.21576],[0.774047,44.195419],[0.776334,44.174572],[0.774047,44.153732],[0.767241,44.133412],[0.756085,44.114112],[0.740854,44.096305],[0.721921,44.08043],[0.699754,44.066874],[0.674897,44.05597],[0.651944,44.048889],[0.518056,44.094167],[0.411111,44.141944],[0.407064,44.153732],[0.404777,44.174572],[0.407064,44.195419],[0.41387,44.21576],[0.425026,44.235094],[0.440258,44.252942],[0.45919,44.268864],[0.474722,44.278889]],[[0.79605,44.092658],[0.867856,44.062436],[0.867905,44.062468],[0.872961,44.063724],[0.87785,44.065285],[0.882536,44.06714],[0.886985,44.069276],[0.891163,44.071677],[0.895042,44.074325],[0.898591,44.077202],[0.901786,44.080286],[0.904603,44.083554],[0.907022,44.086983],[0.909024,44.090549],[0.910595,44.094224],[0.911723,44.097981],[0.9124,44.101795],[0.912622,44.105636],[0.912386,44.109476],[0.911693,44.113288],[0.91055,44.117044],[0.908963,44.120716],[0.906946,44.124277],[0.904512,44.127701],[0.901679,44.130963],[0.898467,44.13404],[0.894901,44.136908],[0.891007,44.139548],[0.886812,44.141938],[0.882347,44.144063],[0.877646,44.145906],[0.872742,44.147454],[0.867672,44.148696],[0.862472,44.149622],[0.857181,44.150226],[0.851837,44.150503],[0.84648,44.150451],[0.841148,44.150071],[0.835882,44.149365],[0.830718,44.148339],[0.825696,44.147],[0.820933,44.145385],[0.820852,44.145358],[0.820933,44.145385],[0.79605,44.092658]],[[2.18,43.624167],[2.188597,43.631177],[2.205052,43.641374],[2.223503,43.649579],[2.227778,43.651111],[2.258889,43.626944],[2.303246,43.592506],[2.334722,43.568056],[2.35,43.54],[2.298611,43.563889],[2.290278,43.558333],[2.347222,43.523611],[2.3,43.521111],[2.263333,43.538333],[2.252314,43.548451],[2.205833,43.591111],[2.18,43.624167]],[[2.6,42.712222],[2.680556,42.845],[2.929167,42.875833],[3.250428,42.719493],[3.489167,42.603056],[3.564722,42.409167],[3.48957,42.340301],[3.174722,42.431389],[3.171307,42.434502]],[[2.709444,43.714722],[3.5,43.680278]],[[2.822287,44.025907],[3.041111,44.624722],[3.038057,44.716967],[3.02102,45.223321]],[[3.283333,44.875833],[3.032704,44.875964]],[[1.036944,44.5],[1.057778,44.747778],[1.070556,44.907222],[1.078056,45.0]],[[0.279722,44.2125],[0.133333,44.116667],[0.06677,44.114045],[-0.502778,44.091043]],[[2.136344,43.280074],[2.136121,43.274553],[2.131483,43.270182],[2.124202,43.26863],[2.117059,43.27049],[2.112782,43.275053],[2.113005,43.280574],[2.117643,43.284944],[2.124924,43.286496],[2.132067,43.284636],[2.136344,43.280074]]]}},
{"type":"Feature","properties":{"name":"LFBO RADAR OUTLINE2","lineStyle":{"color":[59,66,61],"width":1.5,"opacity":1.0,"dashArray":null}},"geometry":{"type":"MultiLineString","coordinates":[[[0.750088,42.840431],[0.75,43.0],[0.75,43.673889],[0.872778,43.766667],[0.279722,44.2125],[0.579722,44.5],[1.716667,44.5],[2.605556,44.058333],[2.822287,44.025907],[2.709444,43.714722],[2.706944,43.2125],[2.660004,43.228473],[2.66,43.213889],[2.625,43.131111],[2.42694,43.132196],[2.275,43.0],[2.735556,42.591111],[2.715213,42.416233]],[[1.213333,43.491944],[1.341667,43.449722],[1.337222,43.405556],[1.304167,43.394722],[1.174167,43.442222],[1.213333,43.491944]]]}},
{"type":"Feature","properties":{"name":"LFBO RADAR OUTLINE1","lineStyle":{"color":[46,82,64],"width":2.0,"opacity":1.0,"dashArray":null}},"geometry":{"type":"MultiLineString","coordinates":[[[0.872778,43.766667],[1.002222,44.038611],[1.350833,44.125556],[1.538889,44.091667],[1.621667,44.083889],[1.725278,43.9],[1.725265,43.574415],[1.647222,43.602778],[1.567389,43.737085],[1.418889,43.986111],[1.090833,43.931389],[0.872778,43.766667]],[[1.725265,43.574415],[1.919167,43.503889]],[[1.567389,43.737085],[1.540278,43.703611]],[[1.848056,43.366667],[1.944444,43.366667],[1.966667,43.358333],[1.967276,43.197459],[1.848263,43.223428],[1.848056,43.366667]]]}},
{"type":"Feature","properties":{"name":"LFBO LF-R","lineStyle":{"color":[136,149,47],"width":0.26,"opacity":1.0,"dashArray":[0.5,1.0]}},"geometry":{"type":"MultiLineString","coordinates":[[[2.347222,43.523611],[2.290278,43.558333],[2.298611,43.563889],[2.35,43.54],[2.347222,43.523611]],[[1.340485,44.323974],[1.55098,44.309148],[1.494411,44.440894]],[[1.340485,44.323974],[1.339801,44.325482],[1.339155,44.326998],[1.338545,44.328522],[1.337972,44.330053],[1.337437,44.331591],[1.336939,44.333135],[1.336479,44.334686],[1.336056,44.336241],[1.335672,44.337802],[1.335325,44.339367],[1.335016,44.340937],[1.334746,44.34251],[1.334513,44.344085],[1.33432,44.345664],[1.334164,44.347245],[1.334047,44.348827],[1.333968,44.35041],[1.333928,44.351995],[1.333926,44.353579],[1.333963,44.355163],[1.334038,44.356746],[1.334152,44.358329],[1.334304,44.359909],[1.334495,44.361487],[1.334723,44.363063],[1.33499,44.364636],[1.335296,44.366205],[1.335639,44.367769],[1.33602,44.36933],[1.33644,44.370885],[1.336896,44.372435],[1.337391,44.373979],[1.337923,44.375516],[1.338492,44.377047],[1.339099,44.37857],[1.339742,44.380086],[1.340422,44.381593],[1.341138,44.383091],[1.341891,44.384581],[1.34268,44.38606],[1.343505,44.38753],[1.344366,44.388989],[1.345261,44.390437],[1.346192,44.391874],[1.347158,44.393299],[1.348158,44.394712],[1.349192,44.396112],[1.35026,44.397499],[1.351362,44.398873],[1.352497,44.400232],[1.353665,44.401578],[1.354865,44.402908],[1.356098,44.404224],[1.357362,44.405524],[1.358658,44.406808],[1.359985,44.408076],[1.361343,44.409327],[1.36273,44.410561],[1.364148,44.411777],[1.365595,44.412976],[1.36707,44.414156],[1.368575,44.415319],[1.370107,44.416462],[1.371667,44.417586],[1.373254,44.41869],[1.374868,44.419775],[1.376507,44.420839],[1.378173,44.421883],[1.379863,44.422906],[1.381579,44.423908],[1.383318,44.424888],[1.385081,44.425847],[1.386867,44.426784],[1.388675,44.427698],[1.390505,44.42859],[1.392357,44.429458],[1.39423,44.430304],[1.396123,44.431127],[1.398036,44.431925],[1.399967,44.4327],[1.401918,44.433451],[1.403886,44.434178],[1.405872,44.43488],[1.407874,44.435557],[1.409893,44.436209],[1.411927,44.436836],[1.413977,44.437438],[1.41604,44.438014],[1.418117,44.438565],[1.420208,44.43909],[1.422311,44.439588],[1.424425,44.440061],[1.426551,44.440507],[1.428687,44.440927],[1.430834,44.44132],[1.432989,44.441687],[1.435153,44.442027],[1.437325,44.44234],[1.439504,44.442625],[1.44169,44.442884],[1.443882,44.443116],[1.446079,44.44332],[1.448281,44.443498],[1.450487,44.443647],[1.452696,44.44377],[1.454908,44.443865],[1.457122,44.443932],[1.459337,44.443973],[1.461552,44.443985],[1.463768,44.44397],[1.465983,44.443928],[1.468197,44.443858],[1.470408,44.443761],[1.472617,44.443636],[1.474823,44.443484],[1.477024,44.443305],[1.479221,44.443098],[1.481412,44.442865],[1.483598,44.442604],[1.485776,44.442316],[1.487948,44.442],[1.490111,44.441659],[1.492266,44.44129],[1.494411,44.440894]],[[1.633987,44.328063],[1.631699,44.269763],[1.77814,44.240592],[1.788665,44.3297]],[[1.633987,44.328063],[1.788665,44.3297]],[[1.029694,44.402078],[1.025556,44.346111],[1.022141,44.313985],[1.029463,44.299248],[1.133802,44.276317],[1.1187,44.399058],[1.063327,44.398077],[1.029669,44.401735]],[[1.651606,43.037124],[1.663504,43.0398],[1.682954,43.017052],[1.679521,43.008352],[1.670598,43.005842]],[[1.670598,43.005842],[1.651606,43.037124]],[[0.708329,43.233949],[0.706717,43.219685],[0.702663,43.205677],[0.696233,43.192147],[0.687526,43.179308],[0.676682,43.167363],[0.66387,43.156502],[0.649292,43.146896],[0.633179,43.138698],[0.615785,43.132036],[0.597383,43.127018],[0.578265,43.123722],[0.558732,43.1222],[0.539091,43.122477],[0.519653,43.124549],[0.500723,43.128382],[0.482602,43.133916],[0.465573,43.141062],[0.449907,43.149709],[0.435849,43.159718],[0.423623,43.170932],[0.413419,43.183173],[0.4054,43.196246],[0.399692,43.209947],[0.396385,43.224058],[0.395531,43.238356],[0.397143,43.252616],[0.401196,43.266613],[0.407627,43.280126],[0.416333,43.292944],[0.427178,43.304864],[0.43999,43.315699],[0.454568,43.325278],[0.470681,43.333452],[0.488075,43.340091],[0.506476,43.345092],[0.525594,43.348376],[0.545128,43.349892],[0.564769,43.349616],[0.584207,43.347552],[0.603136,43.343733],[0.621258,43.338218],[0.638286,43.331094],[0.653953,43.322473],[0.66801,43.312491],[0.680237,43.301303],[0.690441,43.289086],[0.698459,43.276032],[0.704168,43.262347],[0.707475,43.248245],[0.708329,43.233949]],[[0.445748,44.25756],[0.603335,44.221362],[0.687321,44.160086],[0.651944,44.048889],[0.518056,44.094167],[0.411111,44.141944],[0.407064,44.153732],[0.404777,44.174572],[0.407064,44.195419],[0.41387,44.21576],[0.425026,44.235094],[0.440258,44.252942],[0.44548,44.257334]],[[1.256253,43.914741],[1.288116,43.946973],[1.279828,43.956255],[1.251833,43.949095],[1.251648,43.923364]],[[1.251648,43.923364],[1.251833,43.949095],[1.279828,43.956255],[1.288116,43.946973],[1.256253,43.914741]],[[1.167685,43.979601],[1.164693,43.974003],[1.157699,43.970739],[1.149376,43.971057],[1.142901,43.974835],[1.140749,43.980629],[1.143742,43.986227],[1.150735,43.98949],[1.159059,43.989172],[1.165533,43.985395],[1.167685,43.979601]],[[1.251648,43.923364],[1.256253,43.914741]]]}}
]}