{"type":"FeatureCollection","features":[
{"type":"Feature","properties":{"uuid":"LFBO_FIX_SIGNIFICANT_NAMES","textStyle":{"color":[132,239,184],"fontFamily":"Arial","fontSize":10,"fontWeight":400,"text":"SECHE"}},"geometry":{"type":"MultiPoint","coordinates":[[0.516759,44.464669]]}},
{"type":"Feature","properties":{"uuid":"LFBO_FIX_SIGNIFICANT_NAMES","textStyle":{"color":[132,239,184],"fontFamily":"Arial","fontSize":10,"fontWeight":400,"text":"LACOU"}},"geometry":{"type":"MultiPoint","coordinates":[[0.904461,44.322304]]}},
{"type":"Feature","properties":{"uuid":"LFBO_FIX_SIGNIFICANT_NAMES","textStyle":{"color":[132,239,184],"fontFamily":"Arial","fontSize":10,"fontWeight":400,"text":"FISTO"}},"geometry":{"type":"MultiPoint","coordinates":[[1.227547,44.487722]]}},
{"type":"Feature","properties":{"uuid":"LFBO_FIX_SIGNIFICANT_NAMES","textStyle":{"color":[132,239,184],"fontFamily":"Arial","fontSize":10,"fontWeight":400,"text":"NARAK"}},"geometry":{"type":"MultiPoint","coordinates":[[1.752561,44.320378]]}},
{"type":"Feature","properties":{"uuid":"LFBO_FIX_SIGNIFICANT_NAMES","textStyle":{"color":[132,239,184],"fontFamily":"Arial","fontSize":10,"fontWeight":400,"text":"GAUDE"}},"geometry":{"type":"MultiPoint","coordinates":[[0.637916,43.031351]]}},
{"type":"Feature","properties":{"uuid":"LFBO_FIX_SIGNIFICANT_NAMES","textStyle":{"color":[132,239,184],"fontFamily":"Arial","fontSize":10,"fontWeight":400,"text":"ASPET"}},"geometry":{"type":"MultiPoint","coordinates":[[0.979848,43.025447]]}},
{"type":"Feature","properties":{"uuid":"LFBO_FIX_SIGNIFICANT_NAMES","textStyle":{"color":[132,239,184],"fontFamily":"Arial","fontSize":10,"fontWeight":400,"text":"RIBOU"}},"geometry":{"type":"MultiPoint","coordinates":[[1.927566,43.106093]]}},
{"type":"Feature","properties":{"uuid":"LFBO_FIX_SIGNIFICANT_NAMES","textStyle":{"color":[132,239,184],"fontFamily":"Arial","fontSize":10,"fontWeight":400,"text":"MORIL"}},"geometry":{"type":"MultiPoint","coordinates":[[2.35027,43.094297]]}},
{"type":"Feature","properties":{"uuid":"LFBO_FIX_SIGNIFICANT_NAMES","textStyle":{"color":[132,239,184],"fontFamily":"Arial","fontSize":10,"fontWeight":400,"text":"ORBIL"}},"geometry":{"type":"MultiPoint","coordinates":[[2.495658,43.216072]]}},
{"type":"Feature","properties":{"uuid":"LFBO_FIX_SIGNIFICANT_NAMES","textStyle":{"color":[132,239,184],"fontFamily":"Arial","fontSize":10,"fontWeight":400,"text":"AFRIC"}},"geometry":{"type":"MultiPoint","coordinates":[[2.869899,43.801873]]}},
{"type":"Feature","properties":{"uuid":"LFBO_FIX_SIGNIFICANT_NAMES","textStyle":{"color":[132,239,184],"fontFamily":"Arial","fontSize":10,"fontWeight":400,"text":"AMOLO"}},"geometry":{"type":"MultiPoint","coordinates":[[2.579122,43.856257]]}},
{"type":"Feature","properties":{"uuid":"LFBO_FIX_SIGNIFICANT_NAMES","textStyle":{"color":[132,239,184],"fontFamily":"Arial","fontSize":10,"fontWeight":400,"text":"FINOT"}},"geometry":{"type":"MultiPoint","coordinates":[[2.029876,43.741603]]}},
{"type":"Feature","properties":{"uuid":"LFBO_FIX_SIGNIFICANT_NAMES","textStyle":{"color":[132,239,184],"fontFamily":"Arial","fontSize":10,"fontWeight":400,"text":"LMB"}},"geometry":{"type":"MultiPoint","coordinates":[[-0.019025,43.490153]]}},
{"type":"Feature","properties":{"uuid":"LFBO_FIX_SIGNIFICANT_NAMES","textStyle":{"color":[132,239,184],"fontFamily":"Arial","fontSize":10,"fontWeight":400,"text":"MEN"}},"geometry":{"type":"MultiPoint","coordinates":[[3.163369,44.633516]]}}
]}