{"type":"FeatureCollection","features":[
{"type":"Feature","properties":{"name":"LFBO_ARP","pointStyle":{"type":"cross","color":[95,170,119],"size":"small","opacity":1.0}},"geometry":{"type":"MultiPoint","coordinates":[[0.619167,43.1075],[1.103056,43.007778],[1.695833,43.090556],[1.263611,43.449167],[1.357222,43.549167],[1.498611,43.587778],[1.724167,43.611111],[1.92,43.311111],[1.989167,43.406389],[1.978889,43.480278],[2.290556,43.555],[2.308611,43.215833],[2.054722,42.910278],[2.732778,43.175],[2.750294,43.827561],[2.007778,43.768611],[2.116667,43.913333],[2.517778,44.178333],[2.483333,44.4075],[2.026944,44.368889],[3.183333,43.989167],[0.200278,44.499167],[1.788056,44.6725],[1.007222,44.459167],[0.759444,44.399167],[1.126944,44.085833],[1.478611,44.350556],[0.590556,44.174722],[0.6,43.686944],[0.619167,43.1075],[0.433889,42.796944],[0.579299,42.795287],[1.041959,43.201553],[1.376944,44.026667],[1.592289,44.1801],[2.012417,42.446639],[2.124201,42.539058],[2.869722,42.740833],[0.0775,43.215],[-0.002778,43.185556],[0.378175,43.923829],[-0.034722,43.768889],[0.520556,44.824444],[1.243611,44.792222],[0.849675,43.385477]]}},
{"type":"Feature","properties":{"name":"LFBO_FIX_SIGNIFICANT","pointStyle":{"type":"triangle_hollow","color":[95,170,119],"size":"small","opacity":1.0}},"geometry":{"type":"MultiPoint","coordinates":[[0.75,43.311389],[0.758944,43.46075],[0.636667,43.0],[0.979722,43.0],[0.558333,43.321111],[0.558333,43.458056],[0.558333,43.576944],[0.558333,43.651389],[0.300528,43.515417],[0.39875,43.409333],[0.289667,43.412444],[0.178472,43.183667],[0.358056,44.287778],[0.515278,44.438611],[0.9205,44.5],[1.227222,44.461389],[1.6475,44.378611],[0.904389,44.296778],[0.761389,44.349167],[0.888056,44.088194],[1.748889,44.295211],[1.965278,44.151389],[2.037778,44.141111],[2.164444,44.123333],[2.723361,44.267944],[2.902583,44.483667],[2.9875,44.114694],[2.57875,43.827944],[2.021639,43.921556],[2.448358,44.065868],[2.701667,43.806667],[2.852194,43.780556],[2.869167,43.774167],[2.857528,43.416667],[2.576333,43.537611],[2.029889,43.715083],[2.10887,43.718959],[2.251944,43.467778],[2.357222,43.347778],[1.745833,43.259444],[1.896944,43.336389],[1.928889,43.079722],[2.350278,43.065833],[2.493333,43.19],[1.946667,42.673333],[2.868611,43.171944],[2.216417,42.433333],[1.483611,42.616111],[0.997222,42.775],[1.235083,43.292333],[1.274472,43.489778],[1.913278,43.246667],[0.558444,42.693],[2.425833,43.268056],[2.324313,44.474768]]}},
{"type":"Feature","properties":{"name":"LFBO_VOR","pointStyle":{"type":"square","color":[95,170,119],"size":"small","opacity":1.0}},"geometry":{"type":"MultiPoint","coordinates":[[0.872861,43.888028]]}},
{"type":"Feature","properties":{"name":"LFBO_NDB","pointStyle":{"type":"circle_with_outer_rings","color":[95,170,119],"size":"small","opacity":1.0}},"geometry":{"type":"MultiPoint","coordinates":[[0.602972,43.7175],[1.025278,43.530611],[1.181556,43.479806],[1.596167,43.092917],[1.679889,43.481111],[1.211278,43.597194],[1.484932,43.510466],[1.440087,43.950672]]}},
{"type":"Feature","properties":{"name":"LFBO_DME","pointStyle":{"type":"diamond_cross","color":[95,170,119],"size":"small","opacity":1.0}},"geometry":{"type":"MultiPoint","coordinates":[[1.824167,43.954056],[0.14575,43.332222],[-0.018417,43.466667],[2.867139,42.750472],[1.309806,43.680833]]}}
]}