{"type":"FeatureCollection","features":[
{"type":"Feature","properties":{"name":"LFBO_PROC_FIX_TRANSITION","pointStyle":{"type":"circle_cross","color":[95,170,119],"size":"small","opacity":1.0}},"geometry":{"type":"MultiPoint","coordinates":[[1.2355,44.221639],[1.755841,44.111376],[1.624583,43.553361],[1.635556,43.619556],[1.612833,43.482194],[1.473972,43.395083],[0.921966,43.34591],[0.94,43.309444],[1.185833,43.302222],[1.192342,43.242421],[1.078972,43.769833],[1.250861,43.77125],[1.251444,43.864333],[1.412611,43.826889]]}},
{"type":"Feature","properties":{"name":"LFBO_PROC_FIX_IAF","pointStyle":{"type":"circle","color":[95,170,119],"size":"small","opacity":1.0}},"geometry":{"type":"MultiPoint","coordinates":[[1.252556,43.383694],[1.062833,43.642444],[1.90875,43.492],[1.449444,43.981306]]}},
{"type":"Feature","properties":{"name":"LFBO_ECL","lineStyle":{"color":[89,161,124],"width":2.0,"opacity":1.0,"dashArray":null}},"geometry":{"type":"MultiLineString","coordinates":[[[0.622306,44.165413],[0.826068,44.105593]],[[0.689223,44.145775],[0.688195,44.146076],[0.695745,44.15932]],[[0.689223,44.145775],[0.688195,44.146076],[0.682668,44.13638]],[[0.796161,44.114377],[0.795794,44.114485],[0.826954,44.123867]],[[0.796161,44.114377],[0.795794,44.114485],[0.807402,44.094611]],[[2.283292,43.561559],[2.283283,43.561567],[2.093086,43.733183]],[[2.139489,43.691358],[2.139489,43.691358],[2.143186,43.715673]],[[2.139489,43.691358],[2.139489,43.691358],[2.104768,43.69149]],[[2.294464,43.216948],[2.294367,43.216956],[1.907336,43.248117]],[[2.022377,43.238856],[2.022377,43.238856],[2.00437,43.255232]],[[2.022222,43.238869],[2.022377,43.238856],[2.000645,43.225937]],[[1.386592,43.605026],[1.650132,43.351281]],[[1.520769,43.475969],[1.520769,43.475969],[1.548867,43.473116]],[[1.520769,43.475969],[1.520769,43.475969],[1.51696,43.456302]],[[1.338625,43.651117],[1.072076,43.906523]],[[1.201753,43.782403],[1.201753,43.782403],[1.206242,43.805413]],[[1.201753,43.782403],[1.201753,43.782403],[1.170857,43.785538]],[[1.345933,43.644114],[1.372117,43.618964]],[[1.357625,43.637364],[1.380236,43.615636]],[[2.102023,43.913152],[2.101808,43.91315],[1.818568,43.910759]],[[1.870638,43.911198],[1.872153,43.911211],[1.850279,43.926602]],[[1.870638,43.911198],[1.872153,43.911211],[1.851489,43.895969]]]}}
]}