{"type":"FeatureCollection","features":[
{"type":"Feature","properties":{"name":"LFBO_AE_AW_SPLIT","lineStyle":{"color":[46,82,64],"width":2.0,"opacity":1.0,"dashArray":null}},"geometry":{"type":"MultiLineString","coordinates":[[[1.297022,44.5],[1.297937,44.472144]],[[1.299157,44.448844],[1.299157,44.428151]],[[1.300378,44.405052],[1.300683,44.383034]],[[1.300378,44.360572],[1.300683,44.337228]],[[1.300683,44.316713],[1.301903,44.294881]],[[1.300378,44.271948],[1.300378,44.249443]],[[1.300988,44.228023],[1.301293,44.206813]],[[1.302208,44.183846],[1.302819,44.161527]],[[1.300988,44.140074],[1.301598,44.118614]],[[1.303124,44.094736],[1.302819,44.072383]],[[1.303429,44.05046],[1.303124,44.028309]],[[1.304039,44.005931],[1.302819,43.983544]],[[1.305869,43.962247],[1.305869,43.939184]],[[1.305259,43.918091],[1.305259,43.895011]],[[1.306174,43.873462],[1.305564,43.851026]],[[1.304344,43.82836],[1.304649,43.806347]],[[1.304344,43.784326],[1.305259,43.760754]],[[1.305259,43.740038],[1.306174,43.717992]],[[1.517903,43.460006],[1.540174,43.438743]],[[1.561072,43.41437],[1.581208,43.39287]],[[1.597682,43.369366],[1.617513,43.348515]],[[1.638869,43.325438],[1.656564,43.304572]],[[1.679445,43.275037],[1.695614,43.255931]],[[1.71514,43.232374],[1.735581,43.211254]],[[1.755106,43.187902],[1.775241,43.166767]],[[1.793852,43.141617],[1.80453,43.131821],[1.803614,43.119575]],[[1.800869,43.098193],[1.798428,43.073683]],[[1.797513,43.051617],[1.791716,43.030657]],[[1.78836,43.007905],[1.784699,42.986484]],[[1.782564,42.963047],[1.778903,42.939377]],[[1.775547,42.917262],[1.771275,42.894468]],[[1.76853,42.872561],[1.766394,42.849751]],[[1.764258,42.827827],[1.759072,42.805896]],[[1.756021,42.781718],[1.753581,42.758874]],[[1.75053,42.734902],[1.747784,42.71361]],[[1.743513,42.68962],[1.740767,42.668986]],[[1.737411,42.644081],[1.734665,42.624105]]]}}
]}