{"type":"FeatureCollection","features":[
{"type":"Feature","properties":{"name":"LFBO_VFR_VRP","pointStyle":{"type":"asterix","color":[95,170,119],"size":"small","opacity":1.0}},"geometry":{"type":"MultiPoint","coordinates":[[1.591667,43.740278],[1.810451,43.699281],[1.425278,43.658333],[1.383333,43.645278],[1.391944,43.703889],[1.35,43.783333],[1.102778,43.685556],[0.867817,43.632398],[1.275,43.358333],[1.441667,43.4],[1.4425,43.433333],[1.3875,43.511667],[1.306944,43.606389],[1.228056,43.640278],[1.629167,43.449722]]}}
]}