{"type":"FeatureCollection","features":[
{"type":"Feature","properties":{"uuid":"LFBO_VFR_VRP_NAMES","textStyle":{"color":[132,239,184],"fontFamily":"Arial","fontSize":12,"fontWeight":400,"text":"N"}},"geometry":{"type":"MultiPoint","coordinates":[[1.350901,43.807096]]}},
{"type":"Feature","properties":{"uuid":"LFBO_VFR_VRP_NAMES","textStyle":{"color":[132,239,184],"fontFamily":"Arial","fontSize":12,"fontWeight":400,"text":"NA"}},"geometry":{"type":"MultiPoint","coordinates":[[1.39167,43.726519]]}},
{"type":"Feature","properties":{"uuid":"LFBO_VFR_VRP_NAMES","textStyle":{"color":[132,239,184],"fontFamily":"Arial","fontSize":12,"fontWeight":400,"text":"EN"}},"geometry":{"type":"MultiPoint","coordinates":[[1.591222,43.765272]]}},
{"type":"Feature","properties":{"uuid":"LFBO_VFR_VRP_NAMES","textStyle":{"color":[132,239,184],"fontFamily":"Arial","fontSize":12,"fontWeight":400,"text":"EA"}},"geometry":{"type":"MultiPoint","coordinates":[[1.425384,43.665978]]}},
{"type":"Feature","properties":{"uuid":"LFBO_VFR_VRP_NAMES","textStyle":{"color":[132,239,184],"fontFamily":"Arial","fontSize":12,"fontWeight":400,"text":"EB"}},"geometry":{"type":"MultiPoint","coordinates":[[1.383087,43.66912]]}},
{"type":"Feature","properties":{"uuid":"LFBO_VFR_VRP_NAMES","textStyle":{"color":[132,239,184],"fontFamily":"Arial","fontSize":12,"fontWeight":400,"text":"WH"}},"geometry":{"type":"MultiPoint","coordinates":[[1.101998,43.706358]]}},
{"type":"Feature","properties":{"uuid":"LFBO_VFR_VRP_NAMES","textStyle":{"color":[132,239,184],"fontFamily":"Arial","fontSize":12,"fontWeight":400,"text":"WF"}},"geometry":{"type":"MultiPoint","coordinates":[[1.228595,43.666016]]}},
{"type":"Feature","properties":{"uuid":"LFBO_VFR_VRP_NAMES","textStyle":{"color":[132,239,184],"fontFamily":"Arial","fontSize":12,"fontWeight":400,"text":"WD"}},"geometry":{"type":"MultiPoint","coordinates":[[1.307987,43.628752]]}},
{"type":"Feature","properties":{"uuid":"LFBO_VFR_VRP_NAMES","textStyle":{"color":[132,239,184],"fontFamily":"Arial","fontSize":12,"fontWeight":400,"text":"SN"}},"geometry":{"type":"MultiPoint","coordinates":[[1.275,43.358333]]}},
{"type":"Feature","properties":{"uuid":"LFBO_VFR_VRP_NAMES","textStyle":{"color":[132,239,184],"fontFamily":"Arial","fontSize":12,"fontWeight":400,"text":"SA"}},"geometry":{"type":"MultiPoint","coordinates":[[1.443167,43.356341]]}},
{"type":"Feature","properties":{"uuid":"LFBO_VFR_VRP_NAMES","textStyle":{"color":[132,239,184],"fontFamily":"Arial","fontSize":12,"fontWeight":400,"text":"SB"}},"geometry":{"type":"MultiPoint","coordinates":[[1.629845,43.476353]]}},
{"type":"Feature","properties":{"uuid":"LFBO_VFR_VRP_NAMES","textStyle":{"color":[132,239,184],"fontFamily":"Arial","fontSize":12,"fontWeight":400,"text":"SL"}},"geometry":{"type":"MultiPoint","coordinates":[[1.666667,43.483333]]}},
{"type":"Feature","properties":{"uuid":"LFBO_VFR_VRP_NAMES","textStyle":{"color":[132,239,184],"fontFamily":"Arial","fontSize":12,"fontWeight":400,"text":"W"}},"geometry":{"type":"MultiPoint","coordinates":[[0.351972,44.228611]]}},
{"type":"Feature","properties":{"uuid":"LFBO_VFR_VRP_NAMES","textStyle":{"color":[132,239,184],"fontFamily":"Arial","fontSize":12,"fontWeight":400,"text":"WB"}},"geometry":{"type":"MultiPoint","coordinates":[[0.531278,44.111417]]}},
{"type":"Feature","properties":{"uuid":"LFBO_VFR_VRP_NAMES","textStyle":{"color":[132,239,184],"fontFamily":"Arial","fontSize":12,"fontWeight":400,"text":"WA"}},"geometry":{"type":"MultiPoint","coordinates":[[0.484694,44.214139]]}},
{"type":"Feature","properties":{"uuid":"LFBO_VFR_VRP_NAMES","textStyle":{"color":[132,239,184],"fontFamily":"Arial","fontSize":12,"fontWeight":400,"text":"S"}},"geometry":{"type":"MultiPoint","coordinates":[[0.651278,44.063833]]}},
{"type":"Feature","properties":{"uuid":"LFBO_VFR_VRP_NAMES","textStyle":{"color":[132,239,184],"fontFamily":"Arial","fontSize":12,"fontWeight":400,"text":"SA"}},"geometry":{"type":"MultiPoint","coordinates":[[0.660583,44.134861]]}},
{"type":"Feature","properties":{"uuid":"LFBO_VFR_VRP_NAMES","textStyle":{"color":[132,239,184],"fontFamily":"Arial","fontSize":12,"fontWeight":400,"text":"N"}},"geometry":{"type":"MultiPoint","coordinates":[[0.643528,44.245028]]}},
{"type":"Feature","properties":{"uuid":"LFBO_VFR_VRP_NAMES","textStyle":{"color":[132,239,184],"fontFamily":"Arial","fontSize":12,"fontWeight":400,"text":"NA"}},"geometry":{"type":"MultiPoint","coordinates":[[0.646528,44.192833]]}},
{"type":"Feature","properties":{"uuid":"LFBO_VFR_VRP_NAMES","textStyle":{"color":[132,239,184],"fontFamily":"Arial","fontSize":12,"fontWeight":400,"text":"EN"}},"geometry":{"type":"MultiPoint","coordinates":[[2.587778,43.282222]]}},
{"type":"Feature","properties":{"uuid":"LFBO_VFR_VRP_NAMES","textStyle":{"color":[132,239,184],"fontFamily":"Arial","fontSize":12,"fontWeight":400,"text":"ES"}},"geometry":{"type":"MultiPoint","coordinates":[[2.556111,43.185]]}},
{"type":"Feature","properties":{"uuid":"LFBO_VFR_VRP_NAMES","textStyle":{"color":[132,239,184],"fontFamily":"Arial","fontSize":12,"fontWeight":400,"text":"NC"}},"geometry":{"type":"MultiPoint","coordinates":[[2.400556,43.268611]]}},
{"type":"Feature","properties":{"uuid":"LFBO_VFR_VRP_NAMES","textStyle":{"color":[132,239,184],"fontFamily":"Arial","fontSize":12,"fontWeight":400,"text":"SF"}},"geometry":{"type":"MultiPoint","coordinates":[[2.305833,43.155556]]}},
{"type":"Feature","properties":{"uuid":"LFBO_VFR_VRP_NAMES","textStyle":{"color":[132,239,184],"fontFamily":"Arial","fontSize":12,"fontWeight":400,"text":"S"}},"geometry":{"type":"MultiPoint","coordinates":[[2.216667,43.054444]]}},
{"type":"Feature","properties":{"uuid":"LFBO_VFR_VRP_NAMES","textStyle":{"color":[132,239,184],"fontFamily":"Arial","fontSize":12,"fontWeight":400,"text":"WA"}},"geometry":{"type":"MultiPoint","coordinates":[[2.1775,43.254167]]}},
{"type":"Feature","properties":{"uuid":"LFBO_VFR_VRP_NAMES","textStyle":{"color":[132,239,184],"fontFamily":"Arial","fontSize":12,"fontWeight":400,"text":"W"}},"geometry":{"type":"MultiPoint","coordinates":[[2.086389,43.282222]]}},
{"type":"Feature","properties":{"uuid":"LFBO_VFR_VRP_NAMES","textStyle":{"color":[132,239,184],"fontFamily":"Arial","fontSize":12,"fontWeight":400,"text":"WM"}},"geometry":{"type":"MultiPoint","coordinates":[[2.141944,43.190278]]}},
{"type":"Feature","properties":{"uuid":"LFBO_VFR_VRP_NAMES","textStyle":{"color":[132,239,184],"fontFamily":"Arial","fontSize":12,"fontWeight":400,"text":"WP"}},"geometry":{"type":"MultiPoint","coordinates":[[2.055,43.193611]]}},
{"type":"Feature","properties":{"uuid":"LFBO_VFR_VRP_NAMES","textStyle":{"color":[132,239,184],"fontFamily":"Arial","fontSize":12,"fontWeight":400,"text":"WP"}},"geometry":{"type":"MultiPoint","coordinates":[[2.055,43.193611]]}},
{"type":"Feature","properties":{"uuid":"LFBO_VFR_VRP_NAMES","textStyle":{"color":[132,239,184],"fontFamily":"Arial","fontSize":12,"fontWeight":400,"text":"DN"}},"geometry":{"type":"MultiPoint","coordinates":[[1.524722,43.654167]]}},
{"type":"Feature","properties":{"uuid":"LFBO_VFR_VRP_NAMES","textStyle":{"color":[132,239,184],"fontFamily":"Arial","fontSize":12,"fontWeight":400,"text":"DS"}},"geometry":{"type":"MultiPoint","coordinates":[[1.608333,43.548056]]}},
{"type":"Feature","properties":{"uuid":"LFBO_VFR_VRP_NAMES","textStyle":{"color":[132,239,184],"fontFamily":"Arial","fontSize":12,"fontWeight":400,"text":"AE"}},"geometry":{"type":"MultiPoint","coordinates":[[1.661389,43.693889]]}},
{"type":"Feature","properties":{"uuid":"LFBO_VFR_VRP_NAMES","textStyle":{"color":[132,239,184],"fontFamily":"Arial","fontSize":12,"fontWeight":400,"text":"SN"}},"geometry":{"type":"MultiPoint","coordinates":[[1.273655,43.381298]]}},
{"type":"Feature","properties":{"uuid":"LFBO_VFR_VRP_NAMES","textStyle":{"color":[132,239,184],"fontFamily":"Arial","fontSize":12,"fontWeight":400,"text":"SEA"}},"geometry":{"type":"MultiPoint","coordinates":[[1.387378,43.537048]]}},
{"type":"Feature","properties":{"uuid":"LFBO_VFR_VRP_NAMES","textStyle":{"color":[132,239,184],"fontFamily":"Arial","fontSize":12,"fontWeight":400,"text":"SE"}},"geometry":{"type":"MultiPoint","coordinates":[[1.443167,43.459223]]}}
]}