{"type":"FeatureCollection","features":[
{"type":"Feature","properties":{"name":"LFBO_AMSR","lineStyle":{"color":[204,204,104],"width":0.26,"opacity":1.0,"dashArray":null}},"geometry":{"type":"MultiLineString","coordinates":[[[0.279722,44.2125],[0.579722,44.5],[1.036944,44.5],[1.716667,44.5],[2.555787,44.08315],[2.605556,44.058333],[2.822287,44.025907],[2.822287,44.025907],[2.709444,43.714722],[2.706944,43.2125],[2.7141,43.072998],[2.806786,42.623225],[2.785681,42.414083],[2.755579,42.421891],[2.739308,42.422492],[2.715213,42.416233],[2.695376,42.41108],[2.682359,42.398465],[2.656325,42.382241],[2.672596,42.358199],[2.670155,42.346775],[2.632732,42.346775],[2.584732,42.352788],[2.551376,42.338357],[2.51802,42.33535],[2.496054,42.341363],[2.466766,42.361806],[2.452935,42.37563],[2.435037,42.390654],[2.391918,42.406274],[2.333342,42.418888],[2.274766,42.436303],[2.250359,42.431499],[2.203987,42.418888],[2.157614,42.42069],[2.132393,42.409278],[2.116122,42.385847],[2.102063,42.365675],[2.07,42.363611],[2.047222,42.359444],[2.033056,42.358611],[2.016667,42.359722],[2.006389,42.362222],[1.999722,42.367222],[1.972222,42.378056],[1.965556,42.382778],[1.96,42.3925],[1.961111,42.404444],[1.952778,42.424722],[1.947222,42.432222],[1.947222,42.433056],[1.945556,42.438611],[1.942233,42.444494],[1.935556,42.448056],[1.923889,42.455],[1.912222,42.455833],[1.9025,42.451667],[1.893889,42.452222],[1.857871,42.469048],[1.844394,42.465717],[1.84114,42.468718],[1.826496,42.479519],[1.812665,42.483719],[1.797208,42.490318],[1.763038,42.493318],[1.738631,42.498716],[1.732123,42.509512],[1.732936,42.51431],[1.732936,42.527502],[1.743513,42.553277],[1.772801,42.564064],[1.792326,42.577245],[1.764665,42.583834],[1.731309,42.59222],[1.746767,42.605994],[1.737004,42.617969],[1.692259,42.617969],[1.663784,42.624554],[1.616598,42.625152],[1.58975,42.640116],[1.581615,42.651486],[1.531174,42.647297],[1.51653,42.645502],[1.481547,42.653281],[1.474225,42.628744],[1.481547,42.611982],[1.475039,42.605395],[1.441683,42.600604],[1.43192,42.620363],[1.419717,42.641313],[1.413208,42.657469],[1.398564,42.676014],[1.37253,42.697543],[1.357073,42.708902],[1.334293,42.714282],[1.273276,42.72265],[1.234225,42.720857],[1.219581,42.716076],[1.151242,42.715478],[1.139039,42.738786],[1.126022,42.757903],[1.096667,42.7775],[1.086111,42.783889],[1.048611,42.785278],[1.038611,42.788056],[1.010556,42.786389],[0.994722,42.787222],[0.975278,42.792778],[0.970278,42.803333],[0.962222,42.806111],[0.956944,42.805556],[0.943214,42.796643],[0.935556,42.793611],[0.908889,42.801111],[0.884444,42.813889],[0.859108,42.823836],[0.835582,42.825962],[0.825819,42.834912],[0.825006,42.834912],[0.796531,42.836702],[0.778633,42.836105],[0.751785,42.839685],[0.750088,42.840431],[0.75,43.0],[0.75,43.673889],[0.872778,43.766667],[0.279722,44.2125]],[[1.036944,44.5],[1.144651,44.315853],[1.554533,44.181715],[1.653387,43.972127],[2.183824,43.957087],[2.219187,43.851698],[1.994957,43.749026],[2.109884,43.639198],[1.919167,43.503889],[1.617911,43.268531],[1.32574,43.285488],[1.0275,43.384167],[0.75,43.385948]],[[0.886812,44.141938],[1.163939,44.177392],[1.515956,43.846482],[1.550515,43.813435],[1.62124,43.670598],[1.668658,43.630473],[1.63651,43.461539],[1.579448,43.464456],[1.462913,43.580425],[1.27083,43.5845],[1.155902,43.716506],[1.152687,43.758895],[1.099644,43.820973],[1.032848,43.88763],[0.918009,44.09491]],[[0.918009,44.09491],[0.886812,44.141938]],[[2.555787,44.08315],[2.555787,44.08315],[2.347122,43.70873],[2.371529,43.698144],[2.283292,43.561559],[1.970873,43.431309],[2.007012,43.406241],[2.114707,43.354838],[2.148462,43.348409],[2.518205,43.355325],[2.707815,43.387846]],[[0.75,43.119464],[1.274045,43.110077],[1.680713,43.073689],[1.701609,43.076624],[1.721701,43.083081],[1.736971,43.091885],[1.754653,43.101862],[1.770726,43.113597],[2.543074,43.104209],[2.7141,43.072998]],[[2.806786,42.623225],[2.400017,42.960866],[1.077914,42.985834],[0.75,43.025823]],[[0.750086,42.8443],[2.806786,42.623225]]]}},
{"type":"Feature","properties":{"uuid":"LFBO_AMSR_ALTITUDES","textStyle":{"color":[204,204,104],"fontFamily":"Arial","fontSize":12,"fontWeight":400,"text":"13500"}},"geometry":{"type":"MultiPoint","coordinates":[[2.337693,42.528579]]}},
{"type":"Feature","properties":{"uuid":"LFBO_AMSR_ALTITUDES","textStyle":{"color":[204,204,104],"fontFamily":"Arial","fontSize":12,"fontWeight":400,"text":"12000"}},"geometry":{"type":"MultiPoint","coordinates":[[1.396874,42.868476]]}},
{"type":"Feature","properties":{"uuid":"LFBO_AMSR_ALTITUDES","textStyle":{"color":[204,204,104],"fontFamily":"Arial","fontSize":12,"fontWeight":400,"text":"6500"}},"geometry":{"type":"MultiPoint","coordinates":[[2.486576,43.00762]]}},
{"type":"Feature","properties":{"uuid":"LFBO_AMSR_ALTITUDES","textStyle":{"color":[204,204,104],"fontFamily":"Arial","fontSize":12,"fontWeight":400,"text":"3500"}},"geometry":{"type":"MultiPoint","coordinates":[[1.495074,43.178798]]}},
{"type":"Feature","properties":{"uuid":"LFBO_AMSR_ALTITUDES","textStyle":{"color":[204,204,104],"fontFamily":"Arial","fontSize":12,"fontWeight":400,"text":"6300"}},"geometry":{"type":"MultiPoint","coordinates":[[2.543596,43.639047]]}},
{"type":"Feature","properties":{"uuid":"LFBO_AMSR_ALTITUDES","textStyle":{"color":[204,204,104],"fontFamily":"Arial","fontSize":12,"fontWeight":400,"text":"2500"}},"geometry":{"type":"MultiPoint","coordinates":[[1.815016,43.758139]]}},
{"type":"Feature","properties":{"uuid":"LFBO_AMSR_ALTITUDES","textStyle":{"color":[204,204,104],"fontFamily":"Arial","fontSize":12,"fontWeight":400,"text":"3500"}},"geometry":{"type":"MultiPoint","coordinates":[[1.876412,44.180562]]}},
{"type":"Feature","properties":{"uuid":"LFBO_AMSR_ALTITUDES","textStyle":{"color":[204,204,104],"fontFamily":"Arial","fontSize":12,"fontWeight":400,"text":"2500"}},"geometry":{"type":"MultiPoint","coordinates":[[0.672482,44.342873]]}},
{"type":"Feature","properties":{"uuid":"LFBO_AMSR_ALTITUDES","textStyle":{"color":[204,204,104],"fontFamily":"Arial","fontSize":12,"fontWeight":400,"text":"2000"}},"geometry":{"type":"MultiPoint","coordinates":[[1.257569,43.89515]]}}
]}