{"type":"FeatureCollection","features":[
{"type":"Feature","properties":{"name":"LFOB_ECL_DASHED","lineStyle":{"color":[119,255,82],"width":1.0,"opacity":1.0,"dashArray":[2.0,2.0]}},"geometry":{"type":"MultiLineString","coordinates":[[[2.353789,49.349336],[2.428433,49.358922]],[[2.353789,49.349336],[2.358797,49.302884]],[[2.287862,49.378116],[2.370423,49.38696]],[[2.287862,49.378116],[2.28786,49.329901]],[[1.963921,49.519139],[1.963904,49.572562]],[[1.963921,49.519139],[1.8823,49.510145]],[[1.896165,49.548564],[1.886004,49.589562]],[[1.896165,49.548564],[1.821302,49.54193]]]}},
{"type":"Feature","properties":{"name":"LFOB_ECL","lineStyle":{"color":[119,255,82],"width":0.26,"opacity":1.0,"dashArray":null}},"geometry":{"type":"MultiLineString","coordinates":[[[2.131733,49.446206],[2.449648,49.30746]],[[2.252441,49.401671],[2.241164,49.390478]],[[2.104358,49.458094],[1.816693,49.583054]],[[2.013619,49.505385],[2.002442,49.494778]]]}}
]}